NORAD_CAT_ID,OBJECT_NAME,OBJECT_TYPE,EPOCH,MEAN_MOTION,ECCENTRICITY,INCLINATION,RA_OF_ASC_NODE,ARG_OF_PERICENTER,MEAN_ANOMALY,BSTAR,MEAN_MOTION_DOT,MEAN_MOTION_DDOT,TLE_LINE0,TLE_LINE1,TLE_LINE2,SEMIMAJOR_AXIS,PERIOD,APOGEE,PERIGEE,DECAYED
50206.0,STARLINK-3258,PAYLOAD,2022-01-29 14:00:01,15.73251646,0.000188,53.2163,157.3976,42.8011,171.8655,-0.00022793,-0.00032559,0.0,0 STARLINK-3258,1 50206U 21125BC  22029.58334491 -.00032559  00000-0 -22793-3 0  9998,2 50206  53.2163 157.3976 0001880  42.8011 171.8655 15.73251646  7848,6727.748000000001,91.53,350.87800000000016,348.348,0.0
50206.0,STARLINK-3258,PAYLOAD,2022-01-29 22:00:00,15.73246872,0.0001813,53.2159,155.7481,34.1338,269.5184,-0.00038204,-0.00054005,0.0,0 STARLINK-3258,1 50206U 21125BC  22029.91667824 -.00054005  00000-0 -38204-3 0  9998,2 50206  53.2159 155.7481 0001813  34.1338 269.5184 15.73246872  3706,6727.762,91.53,350.846,348.407,0.0
50206.0,STARLINK-3258,PAYLOAD,2022-01-30 14:00:01,15.73190508,0.0001826,53.2164,152.4494,34.4224,87.1137,-0.00033224,-0.00046972,0.0,0 STARLINK-3258,1 50206U 21125BC  22030.58334491 -.00046972  00000-0 -33224-3 0  9995,2 50206  53.2164 152.4494 0001826  34.4224  87.1137 15.73190508  3695,6727.922,91.534,351.016,348.559,0.0
50206.0,STARLINK-3258,PAYLOAD,2022-01-30 22:00:00,15.73215358,0.0001861,53.2166,150.8,32.5382,177.884,-0.00052252,-0.00073369,0.0,0 STARLINK-3258,1 50206U 21125BC  22030.91667824 -.00073369  00000-0 -52252-3 0  9993,2 50206  53.2166 150.8000 0001861  32.5382 177.8840 15.73215358  8059,6727.851,91.532,350.968,348.464,0.0
50206.0,STARLINK-3258,PAYLOAD,2022-01-31 14:00:01,15.73175511,0.0001967,53.2173,147.5013,30.3568,357.9142,0.00014351,0.00019547,0.0,0 STARLINK-3258,1 50206U 21125BC  22031.58335648  .00019547  00000-0  14351-3 0  9997,2 50206  53.2173 147.5013 0001967  30.3568 357.9142 15.73175511  8167,6727.965,91.535,351.153,348.50699999999995,0.0
50206.0,STARLINK-3258,PAYLOAD,2022-01-31 22:00:01,15.73215714,0.0002009,53.2169,145.8516,29.1482,88.0262,0.00010164,0.00013677,0.0,0 STARLINK-3258,1 50206U 21125BC  22031.91668981  .00013677  00000-0  10164-3 0  9999,2 50206  53.2169 145.8516 0002009  29.1482  88.0262 15.73215714  3687,6727.85,91.532,351.06699999999995,348.36400000000015,0.0
50206.0,STARLINK-3258,PAYLOAD,2022-02-01 06:00:00,15.73254198,0.0001849,53.2171,144.2007,35.1072,170.9676,0.00014459,0.00019767,0.0,0 STARLINK-3258,1 50206U 21125BC  22032.25001157  .00019767  00000-0  14459-3 0  9990,2 50206  53.2171 144.2007 0001849  35.1072 170.9676 15.73254198  8269,6727.741,91.53,350.85,348.362,0.0
50206.0,STARLINK-3258,PAYLOAD,2022-02-01 14:00:01,15.73245095,0.0002098,53.2172,142.5533,32.5326,262.5975,-0.00068141,-0.0009537,0.0,0 STARLINK-3258,1 50206U 21125BC  22032.58335648 -.00095370  00000-0 -68141-3 0  9994,2 50206  53.2172 142.5533 0002098  32.5326 262.5975 15.73245095  8317,6727.767,91.531,351.043,348.22,0.0
50206.0,STARLINK-3258,PAYLOAD,2022-02-01 22:00:00,15.73217558,0.0002058,53.2174,140.9035,25.9217,358.0759,-0.00040224,-0.00056741,0.0,0 STARLINK-3258,1 50206U 21125BC  22032.91667824 -.00056741  00000-0 -40224-3 0  9996,2 50206  53.2174 140.9035 0002058  25.9217 358.0759 15.73217558  8379,6727.845,91.532,351.095,348.326,0.0
50206.0,STARLINK-3258,PAYLOAD,2022-02-02 14:00:01,15.73177294,0.0002203,53.2178,137.6051,25.2835,176.5228,0.00026807,0.00037133,0.0,0 STARLINK-3258,1 50206U 21125BC  22033.58334491  .00037133  00000-0  26807-3 0  9994,2 50206  53.2178 137.6051 0002203  25.2835 176.5228 15.73177294  8472,6727.96,91.535,351.307,348.343,0.0
50206.0,STARLINK-3258,PAYLOAD,2022-02-02 22:00:00,15.73108683,0.0001717,53.2172,135.9413,23.3839,267.2283,0.0011082,0.00157237,0.0,0 STARLINK-3258,1 50206U 21125BC  22033.91667824  .00157237  00000-0  11082-2 0  9996,2 50206  53.2172 135.9413 0001717  23.3839 267.2283 15.73108683  8522,6728.156,91.538,351.176,348.865,0.0
50206.0,STARLINK-3258,PAYLOAD,2022-02-03 06:00:00,15.73257623,0.0002099,53.2175,134.3044,30.9451,348.7297,-0.00026721,-0.00038049,0.0,0 STARLINK-3258,1 50206U 21125BC  22034.25001157 -.00038049  00000-0 -26721-3 0  9993,2 50206  53.2175 134.3044 0002099  30.9451 348.7297 15.73257623  8581,6727.731,91.53,351.0080000000001,348.184,0.0
50206.0,STARLINK-3258,PAYLOAD,2022-02-03 14:00:01,15.73234479,0.0002387,53.2173,132.657,29.5524,79.1039,-0.00028059,-0.00039878,0.0,0 STARLINK-3258,1 50206U 21125BC  22034.58334491 -.00039878  00000-0 -28059-3 0  9996,2 50206  53.2173 132.6570 0002387  29.5524  79.1039 15.73234479  3712,6727.797,91.531,351.26800000000014,348.056,0.0
50206.0,STARLINK-3258,PAYLOAD,2022-02-03 22:00:01,15.73222753,0.0002299,53.2173,131.0065,25.3007,172.4014,9.8482e-05,0.00013236,0.0,0 STARLINK-3258,1 50206U 21125BC  22034.91668981  .00013236  00000-0  98482-4 0  9993,2 50206  53.2173 131.0065 0002299  25.3007 172.4014 15.73222753  8689,6727.83,91.532,351.242,348.149,0.0
50206.0,STARLINK-3258,PAYLOAD,2022-02-04 14:00:01,15.73197251,0.0002331,53.2177,127.7083,16.9678,358.6134,-0.00026373,-0.0003747,0.0,0 STARLINK-3258,1 50206U 21125BC  22035.58335648 -.00037470  00000-0 -26373-3 0  9995,2 50206  53.2177 127.7083 0002331  16.9678 358.6134 15.73197251  8799,6727.903,91.533,351.336,348.2,0.0
50206.0,STARLINK-3258,PAYLOAD,2022-02-04 20:00:01,15.73181987,0.0002372,53.2171,126.4708,13.4898,338.7101,0.00026054,0.00036076,0.0,0 STARLINK-3258,1 50206U 21125BC  22035.83334491  .00036076  00000-0  26054-3 0  9993,2 50206  53.2171 126.4708 0002372  13.4898 338.7101 15.73181987  8820,6727.946999999999,91.534,351.407,348.216,0.0
50206.0,STARLINK-3258,PAYLOAD,2022-02-04 22:00:00,15.73196828,0.0002295,53.2172,126.0578,14.7011,89.7235,0.00014664,0.00020006,0.0,0 STARLINK-3258,1 50206U 21125BC  22035.91667824  .00020006  00000-0  14664-3 0  9991,2 50206  53.2172 126.0578 0002295  14.7011  89.7235 15.73196828  3698,6727.904,91.533,351.31300000000016,348.225,0.0
50206.0,STARLINK-3258,PAYLOAD,2022-02-05 06:00:00,15.73265705,0.0002174,53.2173,124.4074,20.8482,172.5189,-0.00021913,-0.0003135,0.0,0 STARLINK-3258,1 50206U 21125BC  22036.25001157 -.00031350  00000-0 -21913-3 0  9991,2 50206  53.2173 124.4074 0002174  20.8482 172.5189 15.73265705  8895,6727.708000000001,91.529,351.035,348.11,0.0
50206.0,STARLINK-3258,PAYLOAD,2022-02-05 14:00:01,15.7324893,0.0002505,53.217,122.7599,21.3559,261.0223,0.00031974,0.00044589,0.0,0 STARLINK-3258,1 50206U 21125BC  22036.58334491  .00044589  00000-0  31974-3 0  9991,2 50206  53.2170 122.7599 0002505  21.3559 261.0223 15.73248930  8944,6727.755999999999,91.53,351.306,347.935,0.0
50206.0,STARLINK-3258,PAYLOAD,2022-02-05 22:00:01,15.73310373,0.0002349,53.2171,121.1089,16.9253,354.5232,-0.0010855,-0.00150999,0.0,0 STARLINK-3258,1 50206U 21125BC  22036.91668981 -.00150999  00000-0 -10855-2 0  9991,2 50206  53.2171 121.1089 0002349  16.9253 354.5232 15.73310373  9006,6727.581,91.527,351.026,347.865,0.0
50206.0,STARLINK-3258,PAYLOAD,2022-02-06 14:00:01,15.73144659,0.0002638,53.2175,117.811,18.7044,170.6054,-0.00015714,-0.00022568,0.0,0 STARLINK-3258,1 50206U 21125BC  22037.58335648 -.00022568  00000-0 -15714-3 0  9996,2 50206  53.2175 117.8110 0002638  18.7044 170.6054 15.73144659  9108,6728.053000000001,91.536,351.6930000000001,348.14300000000014,0.0
50206.0,STARLINK-3258,PAYLOAD,2022-02-06 22:00:00,15.73122317,0.0002503,53.2171,116.1603,15.6979,262.4007,-2.6935e-05,-4.387e-05,0.0,0 STARLINK-3258,1 50206U 21125BC  22037.91667824 -.00004387  00000-0 -26935-4 0  9994,2 50206  53.2171 116.1603 0002503  15.6979 262.4007 15.73122317  3690,6728.1169999999975,91.538,351.666,348.298,0.0
50206.0,STARLINK-3258,PAYLOAD,2022-02-07 06:00:00,15.7314299,0.0002437,53.2172,114.5106,18.128,348.8011,0.00029608,0.00041037,0.0,0 STARLINK-3258,1 50206U 21125BC  22038.25001157  .00041037  00000-0  29608-3 0  9993,2 50206  53.2172 114.5106 0002437  18.1280 348.8011 15.73142990  9217,6728.058000000001,91.536,351.56199999999984,348.283,0.0
50206.0,STARLINK-3258,PAYLOAD,2022-02-07 14:00:01,15.73143133,0.0002721,53.2171,112.8633,17.0547,78.747,0.00049215,0.00068857,0.0,0 STARLINK-3258,1 50206U 21125BC  22038.58334491  .00068857  00000-0  49215-3 0  9994,2 50206  53.2171 112.8633 0002721  17.0547  78.7470 15.73143133  3696,6728.057,91.536,351.75300000000016,348.092,0.0
50206.0,STARLINK-3258,PAYLOAD,2022-02-07 22:00:00,15.73201718,0.0002622,53.2171,111.2123,17.1887,167.503,0.00013034,0.00017713,0.0,0 STARLINK-3258,1 50206U 21125BC  22038.91667824  .00017713  00000-0  13034-3 0  9995,2 50206  53.2171 111.2123 0002622  17.1887 167.5030 15.73201718  3694,6727.89,91.533,351.519,347.991,0.0
50206.0,STARLINK-3258,PAYLOAD,2022-02-08 06:00:00,15.73252916,0.0002549,53.2176,109.5623,18.3445,255.2691,-0.00051112,-0.00071919,0.0,0 STARLINK-3258,1 50206U 21125BC  22039.25001157 -.00071919  00000-0 -51112-3 0  9993,2 50206  53.2176 109.5623 0002549  18.3445 255.2691 15.73252916  9369,6727.744000000002,91.53,351.324,347.894,0.0
50206.0,STARLINK-3258,PAYLOAD,2022-02-08 14:00:01,15.73168551,0.0002872,53.2177,107.9147,15.4589,347.122,0.00052417,0.000735,0.0,0 STARLINK-3258,1 50206U 21125BC  22039.58334491  .00073500  00000-0  52417-3 0  9994,2 50206  53.2177 107.9147 0002872  15.4589 347.1220 15.73168551  3701,6727.985,91.535,351.782,347.918,0.0
50206.0,STARLINK-3258,PAYLOAD,2022-02-08 22:00:01,15.73224538,0.0002755,53.2175,106.2635,16.7153,74.85600000000002,0.00021643,0.00029897,0.0,0 STARLINK-3258,1 50206U 21125BC  22039.91668981  .00029897  00000-0  21643-3 0  9992,2 50206  53.2175 106.2635 0002755  16.7153  74.8560 15.73224538  9473,6727.825,91.532,351.5440000000001,347.837,0.0
50206.0,STARLINK-3258,PAYLOAD,2022-02-09 12:51:34,15.7323617,0.0001922,53.2174,103.1994,42.6627,317.4543,8.5071e-05,0.00011353,0.0,0 STARLINK-3258,1 50206U 21125BC  22040.53581834  .00011353  00000-0  85071-4 0  9997,2 50206  53.2174 103.1994 0001922  42.6627 317.4543 15.73236170  9578,6727.792,91.531,350.95,348.36400000000015,0.0
